NORAD_CAT_ID,OBJECT_NAME,OBJECT_TYPE,EPOCH,MEAN_MOTION,ECCENTRICITY,INCLINATION,RA_OF_ASC_NODE,ARG_OF_PERICENTER,MEAN_ANOMALY,BSTAR,MEAN_MOTION_DOT,MEAN_MOTION_DDOT,TLE_LINE0,TLE_LINE1,TLE_LINE2,SEMIMAJOR_AXIS,PERIOD,APOGEE,PERIGEE,DECAYED
51810.0,STARLINK-3613,PAYLOAD,2023-03-27 09:25:20,15.08873302,7.91e-05,53.2143,129.7837,97.2751,262.8331,0.0021428,0.00034011,0.0,0 STARLINK-3613,1 51810U 22017AU  23086.39260207  .00034011  00000-0  21428-2 0  9993,2 51810  53.2143 129.7837 0000791  97.2751 262.8331 15.08873302 61414,6917.779,95.435,540.191,539.096,0.0
51810.0,STARLINK-3613,PAYLOAD,2023-03-27 14:11:30,15.08872147,0.0001108,53.2147,128.8914,61.3505,298.7598,0.0015903,0.00025135,0.0,0 STARLINK-3613,1 51810U 22017AU  23086.59132069  .00025135  00000-0  15903-2 0  9997,2 51810  53.2147 128.8914 0001108  61.3505 298.7598 15.08872147 61448,6917.782,95.436,540.414,538.881,0.0
51810.0,STARLINK-3613,PAYLOAD,2023-03-28 06:05:21,15.08858742,0.0001072,53.2145,125.9177,75.4145,284.6966,0.001454,0.0002294,0.0,0 STARLINK-3613,1 51810U 22017AU  23087.25372008  .00022940  00000-0  14540-2 0  9997,2 51810  53.2145 125.9177 0001072  75.4145 284.6966 15.08858742 61540,6917.823,95.436,540.43,538.947,0.0
51810.0,STARLINK-3613,PAYLOAD,2023-03-28 12:26:53,15.08862491,0.0001059,53.215,124.7278,72.5437,287.5671,0.0014027,0.0002212,0.0,0 STARLINK-3613,1 51810U 22017AU  23087.51867703  .00022120  00000-0  14027-2 0  9997,2 51810  53.2150 124.7278 0001059  72.5437 287.5671 15.08862491 61464,6917.812,95.436,540.409,538.944,0.0
51810.0,STARLINK-3613,PAYLOAD,2023-03-29 09:06:54,15.08856699,0.0001224,53.2153,120.8612,78.6542,281.4588,0.0011163,0.00017531,0.0,0 STARLINK-3613,1 51810U 22017AU  23088.37979532  .00017531  00000-0  11163-2 0  9994,2 51810  53.2153 120.8612 0001224  78.6542 281.4588 15.08856699 61715,6917.829,95.436,540.541,538.848,0.0
51810.0,STARLINK-3613,PAYLOAD,2023-03-29 18:39:12,15.08837296,7.25e-05,53.2177,119.0773,136.1167,223.9883,-0.00036763,-6.133e-05,0.0,0 STARLINK-3613,1 51810U 22017AU  23088.77723291 -.00006133  00000-0 -36763-3 0  9999,2 51810  53.2177 119.0773 0000725 136.1167 223.9883 15.08837296 61774,6917.889,95.438,540.255,539.252,0.0
51810.0,STARLINK-3613,PAYLOAD,2023-03-30 10:33:04,15.08842862,0.000112,53.2147,116.1049,102.4959,257.6158,0.0015402,0.00024311,0.0,0 STARLINK-3613,1 51810U 22017AU  23089.43963940  .00024311  00000-0  15402-2 0  9992,2 51810  53.2147 116.1049 0001120 102.4959 257.6158 15.08842862 61875,6917.872,95.437,540.511,538.962,0.0
51810.0,STARLINK-3613,PAYLOAD,2023-03-31 10:23:51,15.08852902,0.0001252,53.2143,111.6437,97.8938,262.2196,0.00083236,0.00012989,0.0,0 STARLINK-3613,1 51810U 22017AU  23090.43324016  .00012989  00000-0  83236-3 0  9998,2 51810  53.2143 111.6437 0001252  97.8938 262.2196 15.08852902 62020,6917.841,95.437,540.572,538.84,0.0
51810.0,STARLINK-3613,PAYLOAD,2023-03-31 18:20:47,15.08845494,0.0001444,53.214,110.159,82.8541,277.2615,0.00040383,6.146e-05,0.0,0 STARLINK-3613,1 51810U 22017AU  23090.76444205  .00006146  00000-0  40383-3 0  9991,2 51810  53.2140 110.1590 0001444  82.8541 277.2615 15.08845494 62073,6917.864,95.437,540.728,538.73,0.0
51810.0,STARLINK-3613,PAYLOAD,2023-04-01 10:14:39,15.08834946,0.0001423,53.2149,107.1837,86.5338,273.5817,5.8948e-05,6.5e-06,0.0,0 STARLINK-3613,1 51810U 22017AU  23091.42684718  .00000650  00000-0  58948-4 0  9991,2 51810  53.2149 107.1837 0001423  86.5338 273.5817 15.08834946 62178,6917.896,95.438,540.745,538.776,0.0
51810.0,STARLINK-3613,PAYLOAD,2023-04-02 10:05:25,15.0886877,0.0001368,53.2143,102.7238,85.4298,274.685,0.00042918,6.554e-05,0.0,0 STARLINK-3613,1 51810U 22017AU  23092.42042825  .00006554  00000-0  42918-3 0  9997,2 51810  53.2143 102.7238 0001368  85.4298 274.6850 15.08868770 62327,6917.792,95.436,540.604,538.711,0.0
51810.0,STARLINK-3613,PAYLOAD,2023-04-03 00:23:54,15.08836745,0.0001574,53.2145,100.0469,88.1517,271.9655,7.7316e-05,9.43e-06,0.0,0 STARLINK-3613,1 51810U 22017AU  23093.01660389  .00000943  00000-0  77316-4 0  9991,2 51810  53.2145 100.0469 0001574  88.1517 271.9655 15.08836745 62419,6917.89,95.438,540.844,538.666,0.0
51810.0,STARLINK-3613,PAYLOAD,2023-04-03 11:31:36,15.08838759,0.0001094,53.2147,97.963,92.2769,267.8349,2.966e-05,1.84e-06,0.0,0 STARLINK-3613,1 51810U 22017AU  23093.48028291  .00000184  00000-0  29660-4 0  9998,2 51810  53.2147  97.9630 0001094  92.2769 267.8349 15.08838759 62362,6917.884,95.438,540.506,538.992,0.0
51810.0,STARLINK-3613,PAYLOAD,2023-04-03 17:53:09,15.0883454,0.0001182,53.2147,96.7736,88.4065,271.7063,-3.1261e-05,-7.85e-06,0.0,0 STARLINK-3613,1 51810U 22017AU  23093.74524642 -.00000785  00000-0 -31261-4 0  9997,2 51810  53.2147  96.7736 0001182  88.4065 271.7063 15.08834540 62406,6917.897,95.438,540.58,538.944,0.0
51810.0,STARLINK-3613,PAYLOAD,2023-04-04 06:36:13,15.08847363,0.0001187,53.2143,94.3944,88.8955,271.2174,-4.8836e-05,-1.065e-05,0.0,0 STARLINK-3613,1 51810U 22017AU  23094.27516064 -.00001065  00000-0 -48836-4 0  9993,2 51810  53.2143  94.3944 0001187  88.8955 271.2174 15.08847363 62601,6917.858,95.437,540.544,538.902,0.0
51810.0,STARLINK-3613,PAYLOAD,2023-04-04 11:22:23,15.08849626,0.0001179,53.2145,93.502,90.0676,270.0452,1.783e-05,-4e-08,0.0,0 STARLINK-3613,1 51810U 22017AU  23094.47387898 -.00000004  00000-0  17830-4 0  9997,2 51810  53.2145  93.5020 0001179  90.0676 270.0452 15.08849626 62515,6917.851,95.437,540.532,538.9,0.0
51810.0,STARLINK-3613,PAYLOAD,2023-04-05 00:05:29,15.08835648,0.0001226,53.2153,91.1236,82.246,277.8672,0.00018058,2.587e-05,0.0,0 STARLINK-3613,1 51810U 22017AU  23095.00380896  .00002587  00000-0  18058-3 0  9997,2 51810  53.2153  91.1236 0001226  82.2460 277.8672 15.08835648 62714,6917.894,95.438,540.607,538.911,0.0
51810.0,STARLINK-3613,PAYLOAD,2023-04-05 11:13:10,15.08844601,0.0001247,53.2158,89.0423,81.9198,278.1936,0.00025784,3.819e-05,0.0,0 STARLINK-3613,1 51810U 22017AU  23095.46748527  .00003819  00000-0  25784-3 0  9999,2 51810  53.2158  89.0423 0001247  81.9198 278.1936 15.08844601 62660,6917.866,95.437,540.594,538.869,0.0
51810.0,STARLINK-3613,PAYLOAD,2023-04-05 15:59:20,15.08835498,7.75e-05,53.215,88.1517,168.2428,191.8583,-1.5003e-05,-5.26e-06,0.0,0 STARLINK-3613,1 51810U 22017AU  23095.66620420 -.00000526  00000-0 -15003-4 0  9990,2 51810  53.2150  88.1517 0000775 168.2428 191.8583 15.08835498 62692,6917.894,95.438,540.295,539.223,0.0
51810.0,STARLINK-3613,PAYLOAD,2023-04-06 06:17:48,15.08844764,0.0001084,53.2152,85.4737,87.8144,272.2972,0.00014366,2e-05,0.0,0 STARLINK-3613,1 51810U 22017AU  23096.26236452  .00002000  00000-0  14366-3 0  9992,2 51810  53.2152  85.4737 0001084  87.8144 272.2972 15.08844764 62909,6917.866,95.437,540.481,538.981,0.0
51810.0,STARLINK-3613,PAYLOAD,2023-04-06 11:03:57,15.08848871,0.0001137,53.2156,84.5815,90.889,269.2232,0.00020978,3.053e-05,0.0,0 STARLINK-3613,1 51810U 22017AU  23096.46108255  .00003053  00000-0  20978-3 0  9998,2 51810  53.2156  84.5815 0001137  90.8890 269.2232 15.08848871 62819,6917.853,95.437,540.505,538.932,0.0
51810.0,STARLINK-3613,PAYLOAD,2023-04-06 15:50:07,15.08834944,0.0001376,53.2159,83.6893,90.2792,269.8358,-2.8362e-05,-7.39e-06,0.0,0 STARLINK-3613,1 51810U 22017AU  23096.65980926 -.00000739  00000-0 -28362-4 0  9998,2 51810  53.2159  83.6893 0001376  90.2792 269.8358 15.08834944 62965,6917.896,95.438,540.713,538.809,0.0
51810.0,STARLINK-3613,PAYLOAD,2023-04-06 22:11:40,15.08833209,0.0001894,53.2149,82.5004,82.2591,277.8616,-1.0822e-05,-4.6e-06,0.0,0 STARLINK-3613,1 51810U 22017AU  23096.92477330 -.00000460  00000-0 -10822-4 0  9991,2 51810  53.2149  82.5004 0001894  82.2591 277.8616 15.08833209 62889,6917.901,95.438,541.076,538.456,0.0
51810.0,STARLINK-3613,PAYLOAD,2023-04-07 09:19:22,15.08822631,9.9e-05,53.2154,80.419,93.8337,266.2768,-0.00013851,-2.49e-05,0.0,0 STARLINK-3613,1 51810U 22017AU  23097.38845981 -.00002490  00000-0 -13851-3 0  9992,2 51810  53.2154  80.4190 0000990  93.8337 266.2768 15.08822631 63079,6917.933,95.439,540.483,539.114,0.0
51810.0,STARLINK-3613,PAYLOAD,2023-04-08 07:34:47,15.08847176,9.24e-05,53.2156,76.256,98.4253,261.6844,0.0010304,0.00016152,0.0,0 STARLINK-3613,1 51810U 22017AU  23098.31582501  .00016152  00000-0  10304-2 0  9999,2 51810  53.2156  76.2560 0000924  98.4253 261.6844 15.08847176 63211,6917.858,95.437,540.363,539.084,0.0
51810.0,STARLINK-3613,PAYLOAD,2023-04-08 10:45:33,15.08853019,8.99e-05,53.2151,75.6607,97.3927,262.7167,0.0010709,0.00016803,0.0,0 STARLINK-3613,1 51810U 22017AU  23098.44830368  .00016803  00000-0  10709-2 0  9992,2 51810  53.2151  75.6607 0000899  97.3927 262.7167 15.08853019 63110,6917.841,95.437,540.328,539.084,0.0
51810.0,STARLINK-3613,PAYLOAD,2023-04-09 10:36:19,15.08874826,9.55e-05,53.2147,71.2,94.9047,265.2054,0.00078427,0.00012228,0.0,0 STARLINK-3613,1 51810U 22017AU  23099.44188842  .00012228  00000-0  78427-3 0  9995,2 51810  53.2147  71.2000 0000955  94.9047 265.2054 15.08874826 63261,6917.774,95.435,540.3,538.978,0.0
51810.0,STARLINK-3613,PAYLOAD,2023-04-09 15:22:28,15.0884488,9.03e-05,53.2152,70.3084,85.8612,274.2483,-0.00032672,-5.484e-05,0.0,0 STARLINK-3613,1 51810U 22017AU  23099.64061280 -.00005484  00000-0 -32672-3 0  9993,2 51810  53.2152  70.3084 0000903  85.8612 274.2483 15.08844880 63419,6917.865,95.437,540.355,539.106,0.0
51810.0,STARLINK-3613,PAYLOAD,2023-04-09 21:44:01,15.08846042,9.92e-05,53.2155,69.1187,84.3554,275.7551,-6.0961e-05,-1.258e-05,0.0,0 STARLINK-3613,1 51810U 22017AU  23099.90557257 -.00001258  00000-0 -60961-4 0  9994,2 51810  53.2155  69.1187 0000992  84.3554 275.7551 15.08846042 63334,6917.862,95.437,540.413,539.041,0.0
51810.0,STARLINK-3613,PAYLOAD,2023-04-10 04:05:34,15.08846868,9.62e-05,53.2156,67.9295,81.6457,278.4644,0.00022724,3.331e-05,0.0,0 STARLINK-3613,1 51810U 22017AU  23100.17053257  .00003331  00000-0  22724-3 0  9993,2 51810  53.2156  67.9295 0000962  81.6457 278.4644 15.08846868 63373,6917.859,95.437,540.39,539.059,0.0
